SKYSAT-C4               
1 41771U 16058B   26159.02634495  .00017080  00000+0  32478-3 0  9998
2 41771  96.9185 181.1836 0000835  93.5442 266.5905 15.48303073544056
SKYSAT-C5               
1 41772U 16058C   26159.10435249  .00008404  00000+0  25495-3 0  9995
2 41772  97.0477 200.1504 0002078   5.7480 354.3787 15.34341868542359
SKYSAT-C2               
1 41773U 16058D   26159.04431640  .00012607  00000+0  29876-3 0  9997
2 41773  97.0173 181.4849 0005129  90.2046 269.9789 15.41863485543641
SKYSAT-C3               
1 41774U 16058E   26159.05430529  .00025423  00000+0  42109-3 0  9998
2 41774  96.9014 190.2558 0001936  81.0427 279.1046 15.52149605544690
ALSAT-1B                
1 41785U 16059C   26159.20103418  .00000623  00000+0  10605-3 0  9993
2 41785  97.7756 168.3529 0007729 254.5970 105.4385 14.72268845519254
PATHFINDER 1            
1 41787U 16059E   26158.93262463  .00000667  00000+0  12494-3 0  9996
2 41787  97.8166 158.6265 0027193 234.1007 125.7674 14.67653090518353
SCATSAT 1               
1 41790U 16059H   26159.15076113  .00001109  00000+0  15246-3 0  9990
2 41790  98.1193 222.8235 0053288 277.3838  82.1319 14.79507199100256
GOKTURK 1A              
1 41875U 16073A   26159.14798770  .00000409  00000+0  89290-4 0  9992
2 41875  98.1256  53.9637 0001476  77.5742 282.5624 14.62768543507503
RESOURCESAT-2A          
1 41877U 16074A   26159.20264207  .00000009  00000+0  24374-4 0  9993
2 41877  98.7520 232.7803 0003347 100.6517 259.5037 14.21613070493026
CARTOSAT-2D             
1 41948U 17008A   26159.20115595  .00004563  00000+0  21957-3 0  9997
2 41948  97.4108 218.6746 0003506 273.8289  86.2545 15.19266829516218
SENTINEL-2B             
1 42063U 17013A   26159.18650149  .00000139  00000+0  69622-4 0  9995
2 42063  98.5686 234.0879 0001218  85.6739 274.4583 14.30814685483358
CARTOSAT-2E             
1 42767U 17036C   26159.15288660  .00004452  00000+0  21442-3 0  9992
2 42767  97.4277 219.1039 0003185 359.6505   0.4726 15.19253988496772
FORMOSAT-5              
1 42920U 17049A   26159.15662144  .00000171  00000+0  54274-4 0  9994
2 42920  98.2253 234.6668 0012660 109.2182 251.0384 14.50895557465367
SENTINEL-5P             
1 42969U 17064A   26159.10918251  .00000061  00000+0  50057-4 0  9995
2 42969  98.7923 101.3052 0000995  81.6493 278.4795 14.19517516448273
SKYSAT-C11              
1 42987U 17068A   26158.93501588  .00028375  00000+0  38784-3 0  9990
2 42987  97.4344 307.3677 0001058  89.0702 271.0675 15.57416353481805
SKYSAT-C10              
1 42988U 17068B   26158.90250275  .00009313  00000+0  28119-3 0  9994
2 42988  97.4495 295.6613 0001250  89.9760 270.1626 15.34481998480930
SKYSAT-C9               
1 42989U 17068C   26158.95593904  .00013496  00000+0  32517-3 0  9993
2 42989  97.4416 296.5625 0008925 162.7776 197.3775 15.41334622481339
SKYSAT-C8               
1 42990U 17068D   26158.88789250  .00010641  00000+0  29815-3 0  9994
2 42990  97.4511 295.4111 0001565  98.3246 261.8176 15.36794419480883
SKYSAT-C7               
1 42991U 17068E   26159.07654344  .00011517  00000+0  32277-3 0  9991
2 42991  97.4524 296.5914 0006970 133.4077 226.7748 15.36745901480976
SKYSAT-C6               
1 42992U 17068F   26158.94995670  .00009723  00000+0  29742-3 0  9996
2 42992  97.4558 296.4663 0003894 162.0776 198.0605 15.34051610480901
CARTOSAT-2F             
1 43111U 18004A   26159.18471803  .00004855  00000+0  23323-3 0  9995
2 43111  97.4784 218.9077 0000077 349.4337  10.6896 15.19306449465964
GAOFEN-1 02             
1 43259U 18031A   26159.21723462  .00001206  00000+0  18063-3 0  9995
2 43259  98.0524 221.7691 0004350  53.5172 306.6438 14.76471154441375
GAOFEN-1 03             
1 43260U 18031B   26159.19540944  .00000836  00000+0  12762-3 0  9994
2 43260  98.0525 221.6066 0003825  96.7343 263.4302 14.76456995441363
GAOFEN-1 04             
1 43262U 18031D   26159.17113516  .00000717  00000+0  11050-3 0  9992
2 43262  98.0525 221.7719 0002228  90.5666 269.5799 14.76466883441350
SENTINEL-3B             
1 43437U 18039A   26159.14294896  .00000107  00000+0  62385-4 0  9993
2 43437  98.6250 226.8048 0000869  77.3993 282.7284 14.26739258422833
GAOFEN-5 01             
1 43461U 18043A   26159.15604282  .00000396  00000+0  91501-4 0  9992
2 43461  98.4565 130.5529 0003019  99.7496 260.4045 14.60599561430373
GAOFEN-6                
1 43484U 18048A   26159.19401209  .00000513  00000+0  80430-4 0  9990
2 43484  97.7757 222.2079 0011332 197.8547 162.2267 14.76621942432065
GAOFEN-11 01            
1 43585U 18063A   26159.16509913  .00011774  00000+0  17684-3 0  9998
2 43585  97.1293 226.0710 0004107  28.7548 331.3932 15.55025371438948
ICESAT-2                
1 43613U 18070A   26159.11885800  .00010746  00000+0  39026-3 0  9997
2 43613  92.0068 288.5305 0005221 119.6694 240.5076 15.28256485431076
HYSIS                   
1 43719U 18096A   26159.14380454  .00001358  00000+0  19233-3 0  9997
2 43719  97.9836 225.9623 0001657 112.5871 247.5515 14.78677968406081
KAZSTSAT                
1 43783U 18099AB  26159.02425463  .00001432  00000+0  12008-3 0  9994
2 43783  97.4264 191.3697 0007813  93.5092 266.7026 14.99841772409938
